[{"OBJECT_NAME":"NUSAT-35 (WILLIAMINA)","OBJECT_ID":"2023-001AR","EPOCH":"2026-03-09T22:28:40.425600","MEAN_MOTION":15.3245616,"ECCENTRICITY":0.00136635,"INCLINATION":97.1993,"RA_OF_ASC_NODE":124.278,"ARG_OF_PERICENTER":97.0313,"MEAN_ANOMALY":263.2484,"EPHEMERIS_TYPE":0,"CLASSIFICATION_TYPE":"U","NORAD_CAT_ID":55048,"ELEMENT_SET_NO":999,"REV_AT_EPOCH":17719,"BSTAR":0.00053479647,"MEAN_MOTION_DOT":0.0001675,"MEAN_MOTION_DDOT":0},{"OBJECT_NAME":"STARLINK-31124","OBJECT_ID":"2023-211H","EPOCH":"2026-03-09T11:14:08.500416","MEAN_MOTION":15.27571582,"ECCENTRICITY":0.00023599,"INCLINATION":43.0037,"RA_OF_ASC_NODE":86.2802,"ARG_OF_PERICENTER":269.4061,"MEAN_ANOMALY":90.6521,"EPHEMERIS_TYPE":0,"CLASSIFICATION_TYPE":"U","NORAD_CAT_ID":58674,"ELEMENT_SET_NO":999,"REV_AT_EPOCH":12243,"BSTAR":0.00027032682,"MEAN_MOTION_DOT":7.182e-5,"MEAN_MOTION_DDOT":0}]
